LINK                    
1 42714U 98067LV  17292.04202166  .00025639  00000-0  30583-3 0  9997
2 42714  51.6360 137.5372 0000631   8.4154 351.6850 15.60883827 23923
CSUNSAT 1               
1 42715U 98067LW  17292.03535501  .00015442  00000-0  19963-3 0  9999
2 42715  51.6379 138.2467 0003076 354.7984   5.2977 15.59133712 23809
UPSAT                   
1 42716U 98067LX  17292.15656117  .00022359  00000-0  26936-3 0  9993
2 42716  51.6372 136.8100 0003878  88.9412 271.2026 15.60707463 23962
SPACECUBE               
1 42717U 98067LY  17292.06514841  .00017804  00000-0  22378-3 0  9996
2 42717  51.6373 137.6973 0004043  86.2976 273.8480 15.59756617 23181
HOOPOE                  
1 42718U 98067LZ  17292.17473183  .00019876  00000-0  24459-3 0  9995
2 42718  51.6372 136.9296 0003901  86.8934 273.2506 15.60232389 23206
CHALLENGER              
1 42721U 98067MA  17292.08702201  .00028073  00000-0  32479-3 0  9995
2 42721  51.6362 137.0854 0005468  59.8803 300.2732 15.61614299 22897
NJUST-1                 
1 42722U 98067MB  17292.25293813  .00015738  00000-0  20647-3 0  9997
2 42722  51.6377 137.4498 0006630  58.3331 301.8307 15.58710338 22908
UNSW-ECO                
1 42723U 98067MC  17292.14253633  .00021142  00000-0  26110-3 0  9999
2 42723  51.6374 137.4665 0005938  59.1051 301.0526 15.60084278 22871
DUTHSAT                 
1 42724U 98067MD  17292.03828139  .00027902  00000-0  32653-3 0  9996
2 42724  51.6373 137.5176 0004799  65.0238 295.1254 15.61323750 22789
LILACSAT-1              
1 42725U 98067ME  17292.11858411  .00017210  00000-0  22173-3 0  9999
2 42725  51.6377 138.0548 0005456  63.6057 296.5495 15.59122830 22782
NSIGHT-1                
1 42726U 98067MF  17292.05423542  .00008035  00000-0  11485-3 0  9995
2 42726  51.6390 139.1287 0006370  61.3958 298.7674 15.57221756 22778
SNUSAT-1                
1 42727U 98067MG  17292.05210537  .00014969  00000-0  19419-3 0  9992
2 42727  51.6365 138.3492 0006333  17.3983 342.7226 15.59057208 22749
QBITO                   
1 42728U 98067MH  17292.02767673  .00017325  00000-0  21915-3 0  9991
2 42728  51.6389 138.2071 0003159  80.2574 279.8776 15.59613741 22588
AALTO-2                 
1 42729U 98067MJ  17292.02744286  .00017726  00000-0  22387-3 0  9996
2 42729  51.6378 138.1984 0003075  80.3830 279.7510 15.59636634 22594
SUSAT                   
1 42730U 98067MK  17291.97276957  .00016680  00000-0  21306-3 0  9994
2 42730  51.6377 138.5797 0003170  75.7608 284.3736 15.59385887 22579
I-INSPIRE II            
1 42731U 98067ML  17292.19737910  .00022794  00000-0  27827-3 0  9998
2 42731  51.6361 137.0688 0005216   0.4519 359.6478 15.60340559 22663
POLYITAN-2-SAU          
1 42732U 98067MM  17292.21417443  .00019055  00000-0  23878-3 0  9996
2 42732  51.6368 137.1817 0005421   0.1577 359.9417 15.59778092 22666
SNUSAT-1B               
1 42733U 98067MN  17292.03663437  .00015752  00000-0  20145-3 0  9997
2 42733  51.6375 138.2483 0005562   3.2593 356.8435 15.59395091 22631
EXALTA-1                
1 42734U 98067MP  17292.07225878  .00022051  00000-0  27086-3 0  9996
2 42734  51.6363 137.7355 0006907  29.2794 330.8585 15.60190521 22592
AOXIANG-1               
1 42735U 98067MQ  17291.92768977  .00013980  00000-0  18354-3 0  9991
2 42735  51.6371 139.0248 0007102  53.4115 306.7530 15.58799884 23982
BEEAGLESAT              
1 42736U 98067MR  17292.17633827  .00016625  00000-0  21455-3 0  9990
2 42736  51.6368 137.6850 0006832  53.2519 306.9100 15.59099222 22712
ATLANTIS                
1 42737U 98067MS  17292.05665373  .00046328  00000-0  47019-3 0  9996
2 42737  51.6345 136.1212 0004072  56.2430 303.8952 15.64728000 22612
PROGRESS-MS 06          
1 42756U 17033A   17291.57454127  .00002091  00000-0  38736-4 0  9996
2 42756  51.6394 143.2289 0005221  33.8816  55.3579 15.54205334 19637
ISS DEB (ROSA)          
1 42813U 98067MT  17291.87362329  .00058864  00000-0  60143-3 0  9996
2 42813  51.6354 138.6586 0000687 315.3840  44.7099 15.64464017 17960
SOYUZ-MS 05             
1 42898U 17043A   17291.57454127  .00002091  00000-0  38736-4 0  9994
2 42898  51.6394 143.2289 0005221  33.8816  55.3579 15.54205334 12749
SOYUZ-MS 06             
1 42937U 17054A   17291.57454127  .00002091  00000-0  38736-4 0  9990
2 42937  51.6394 143.2289 0005221  33.8816  55.3579 15.54205334  5554
PROGRESS-MS 07          
1 42971U 17065A   17291.57454127  .00002091  00000-0  38736-4 0  9990
2 42971  51.6394 143.2289 0005221  33.8816  55.3579 15.54205334 80948
